$$SOE
2460154.500000000, A.D. 2023-Jul-29 00:00:00.0000, -3.959584745388108E+08, 3.604249774852773E+08, 2.494977677571583E+08,
2460161.500000000, A.D. 2023-Aug-05 00:00:00.0000, -4.006075654478694E+08, 3.541644201630670E+08, 2.496379999167414E+08,
2460168.500000000, A.D. 2023-Aug-12 00:00:00.0000, -4.051620670117807E+08, 3.478201742807733E+08, 2.497192536721715E+08,
2460175.500000000, A.D. 2023-Aug-19 00:00:00.0000, -4.096205982102417E+08, 3.413934729410093E+08, 2.497413206550300E+08,
2460182.500000000, A.D. 2023-Aug-26 00:00:00.0000, -4.139817740575134E+08, 3.348855617560567E+08, 2.497039944875293E+08,
2460189.500000000, A.D. 2023-Sep-02 00:00:00.0000, -4.182442053074626E+08, 3.282976994954293E+08, 2.496070708280004E+08,
2460196.500000000, A.D. 2023-Sep-09 00:00:00.0000, -4.224064981529341E+08, 3.216311586399511E+08, 2.494503474131047E+08,
2460203.500000000, A.D. 2023-Sep-16 00:00:00.0000, -4.264672537512348E+08, 3.148872257849243E+08, 2.492336240768555E+08,
2460210.500000000, A.D. 2023-Sep-23 00:00:00.0000, -4.304250671595615E+08, 3.080672021797228E+08, 2.489567027319703E+08,
2460217.500000000, A.D. 2023-Sep-30 00:00:00.0000, -4.342785260203750E+08, 3.011724055950434E+08, 2.486193874424032E+08,
2460224.500000000, A.D. 2023-Oct-07 00:00:00.0000, -4.380262113512599E+08, 2.942041729758003E+08, 2.482214847593812E+08,
2460231.500000000, A.D. 2023-Oct-14 00:00:00.0000, -4.416666993997315E+08, 2.871638605677831E+08, 2.477628039555779E+08,
2460238.500000000, A.D. 2023-Oct-21 00:00:00.0000, -4.451985613341371E+08, 2.800528431214051E+08, 2.472431569923271E+08,
2460245.500000000, A.D. 2023-Oct-28 00:00:00.0000, -4.486203621956078E+08, 2.728725144328036E+08, 2.466623585356208E+08,
2460252.500000000, A.D. 2023-Nov-04 00:00:00.0000, -4.519306603622300E+08, 2.656242884527603E+08, 2.460202260737051E+08,
2460259.500000000, A.D. 2023-Nov-11 00:00:00.0000, -4.551280073486471E+08, 2.583096003647580E+08, 2.453165800719973E+08,
2460266.500000000, A.D. 2023-Nov-18 00:00:00.0000, -4.582109477221819E+08, 2.509299075689501E+08, 2.445512441407575E+08,
2460273.500000000, A.D. 2023-Nov-25 00:00:00.0000, -4.611780190632758E+08, 2.434866905956482E+08, 2.437240452114385E+08,
2460280.500000000, A.D. 2023-Dec-02 00:00:00.0000, -4.640277519426834E+08, 2.359814539382227E+08, 2.428348137188887E+08,
2460287.500000000, A.D. 2023-Dec-09 00:00:00.0000, -4.667586698381574E+08, 2.284157267475933E+08, 2.418833837779595E+08,
2460294.500000000, A.D. 2023-Dec-16 00:00:00.0000, -4.693692887035811E+08, 2.207910634018305E+08, 2.408695933294405E+08,
2460301.500000000, A.D. 2023-Dec-23 00:00:00.0000, -4.718581158427038E+08, 2.131090446389554E+08, 2.397932842796505E+08,
2460308.500000000, A.D. 2023-Dec-30 00:00:00.0000, -4.742236494288237E+08, 2.053712803025605E+08, 2.386543028426763E+08,
2460315.500000000, A.D. 2024-Jan-06 00:00:00.0000, -4.764643804447432E+08, 1.975794113402896E+08, 2.374525000558873E+08,
2460322.500000000, A.D. 2024-Jan-13 00:00:00.0000, -4.785787938717440E+08, 1.897351092496938E+08, 2.361877320310249E+08,
2460329.500000000, A.D. 2024-Jan-20 00:00:00.0000, -4.805653679050014E+08, 1.818400760570229E+08, 2.348598600811000E+08,
2460336.500000000, A.D. 2024-Jan-27 00:00:00.0000, -4.824225732259989E+08, 1.738960454819295E+08, 2.334687509633188E+08,
2460343.500000000, A.D. 2024-Feb-03 00:00:00.0000, -4.841488727624787E+08, 1.659047843409585E+08, 2.320142772010613E+08,
2460350.500000000, A.D. 2024-Feb-10 00:00:00.0000, -4.857427216603442E+08, 1.578680939004474E+08, 2.304963174366789E+08,
2460357.500000000, A.D. 2024-Feb-17 00:00:00.0000, -4.872025673303903E+08, 1.497878111882789E+08, 2.289147568037564E+08,
2460364.500000000, A.D. 2024-Feb-24 00:00:00.0000, -4.885268495356102E+08, 1.416658102805808E+08, 2.272694873174301E+08,
2460371.500000000, A.D. 2024-Mar-02 00:00:00.0000, -4.897140004915808E+08, 1.335040035320352E+08, 2.255604082781580E+08,
2460378.500000000, A.D. 2024-Mar-09 00:00:00.0000, -4.907624448431427E+08, 1.253043426880548E+08, 2.237874266718974E+08,
2460385.500000000, A.D. 2024-Mar-16 00:00:00.0000, -4.916705991242311E+08, 1.170688200770986E+08, 2.219504575474487E+08,
2460392.500000000, A.D. 2024-Mar-23 00:00:00.0000, -4.924368708068025E+08, 1.087994709929903E+08, 2.200494244720795E+08,
2460399.500000000, A.D. 2024-Mar-30 00:00:00.0000, -4.930596591829913E+08, 1.004983772410687E+08, 2.180842602701891E+08,
2460406.500000000, A.D. 2024-Apr-06 00:00:00.0000, -4.935373578281669E+08, 9.216766848168565E+07, 2.160549077483216E+08,
2460413.500000000, A.D. 2024-Apr-13 00:00:00.0000, -4.938683550968009E+08, 8.380952220914280E+07, 2.139613201507986E+08,
2460420.500000000, A.D. 2024-Apr-20 00:00:00.0000, -4.940510336059391E+08, 7.542616504358394E+07, 2.118034616531504E+08,
2460427.500000000, A.D. 2024-Apr-27 00:00:00.0000, -4.940837702270622E+08, 6.701987477486348E+07, 2.095813079883380E+08,
2460434.500000000, A.D. 2024-May-04 00:00:00.0000, -4.939649365028704E+08, 5.859298245599131E+07, 2.072948471424936E+08,
2460441.500000000, A.D. 2024-May-11 00:00:00.0000, -4.936928992550457E+08, 5.014787444570120E+07, 2.049440800922019E+08,
2460448.500000000, A.D. 2024-May-18 00:00:00.0000, -4.932660213054134E+08, 4.168699442302762E+07, 2.025290215796625E+08,
2460455.500000000, A.D. 2024-May-25 00:00:00.0000, -4.926826622904425E+08, 3.321284536784499E+07, 2.000497009250248E+08,
2460462.500000000, A.D. 2024-Jun-01 00:00:00.0000, -4.919411795142188E+08, 2.472799145083804E+07, 1.975061628679692E+08,
2460469.500000000, A.D. 2024-Jun-08 00:00:00.0000, -4.910399285988350E+08, 1.623505981066894E+07, 1.948984684164357E+08,
2460476.500000000, A.D. 2024-Jun-15 00:00:00.0000, -4.899772635382319E+08, 7.736742763899513E+06, 1.922266957128130E+08,
2460483.500000000, A.D. 2024-Jun-22 00:00:00.0000, -4.887515371665926E+08, -7.641983771952689E+05, 1.894909411083026E+08,
2460490.500000000, A.D. 2024-Jun-29 00:00:00.0000, -4.873611041698189E+08, -9.264929700260416E+06, 1.866913204942030E+08,
2460497.500000000, A.D. 2024-Jul-06 00:00:00.0000, -4.858043240029842E+08, -1.776254377325521E+07, 1.838279704490149E+08,
2460504.500000000, A.D. 2024-Jul-13 00:00:00.0000, -4.840795617717310E+08, -2.625405858540038E+07, 1.809010492561989E+08,
2460511.500000000, A.D. 2024-Jul-20 00:00:00.0000, -4.821851890703135E+08, -3.473641520102199E+07, 1.779107380709216E+08,
2460518.500000000, A.D. 2024-Jul-27 00:00:00.0000, -4.801195854406839E+08, -4.320647508763128E+07, 1.748572422204139E+08,
2460525.500000000, A.D. 2024-Aug-03 00:00:00.0000, -4.778811401890572E+08, -5.166101749482425E+07, 1.717407925854543E+08,
2460532.500000000, A.D. 2024-Aug-10 00:00:00.0000, -4.754682544035889E+08, -6.009673688990226E+07, 1.685616470502644E+08,
2460539.500000000, A.D. 2024-Aug-17 00:00:00.0000, -4.728793431350907E+08, -6.851024043037182E+07, 1.653200920206317E+08,
2460546.500000000, A.D. 2024-Aug-24 00:00:00.0000, -4.701128377222987E+08, -7.689804549843013E+07, 1.620164440080141E+08,
2460553.500000000, A.D. 2024-Aug-31 00:00:00.0000, -4.671671881559901E+08, -8.525657736303452E+07, 1.586510512662653E+08,
2460560.500000000, A.D. 2024-Sep-07 00:00:00.0000, -4.640408651273674E+08, -9.358216684845969E+07, 1.552242954604976E+08,
2460567.500000000, A.D. 2024-Sep-14 00:00:00.0000, -4.607323616874481E+08, -1.018710470195751E+08, 1.517365934448032E+08,
2460574.500000000, A.D. 2024-Sep-21 00:00:00.0000, -4.572401965592632E+08, -1.101193484782130E+08, 1.481883993720436E+08,
2460581.500000000, A.D. 2024-Sep-28 00:00:00.0000, -4.535629196048591E+08, -1.183230965061657E+08, 1.445802069204538E+08,
2460588.500000000, A.D. 2024-Oct-05 00:00:00.0000, -4.496991157928308E+08, -1.264782100610246E+08, 1.409125513044263E+08,
2460595.500000000, A.D. 2024-Oct-12 00:00:00.0000, -4.456474080412909E+08, -1.345804996529249E+08, 1.371860113488191E+08,
2460602.500000000, A.D. 2024-Oct-19 00:00:00.0000, -4.414064607008919E+08, -1.426256643833653E+08, 1.334012117672700E+08,
2460609.500000000, A.D. 2024-Oct-26 00:00:00.0000, -4.369749837251182E+08, -1.506092889602395E+08, 1.295588255842844E+08,
2460616.500000000, A.D. 2024-Nov-02 00:00:00.0000, -4.323517372865328E+08, -1.585268408516708E+08, 1.256595766679044E+08,
2460623.500000000, A.D. 2024-Nov-09 00:00:00.0000, -4.275355367588676E+08, -1.663736675734196E+08, 1.217042423680949E+08,
2460630.500000000, A.D. 2024-Nov-16 00:00:00.0000, -4.225252580556657E+08, -1.741449941267692E+08, 1.176936562603413E+08,
2460637.500000000, A.D. 2024-Nov-23 00:00:00.0000, -4.173198432953652E+08, -1.818359206560289E+08, 1.136287109874747E+08,
2460644.500000000, A.D. 2024-Nov-30 00:00:00.0000, -4.119183066015826E+08, -1.894414203897753E+08, 1.095103611780616E+08,
2460651.500000000, A.D. 2024-Dec-07 00:00:00.0000, -4.063197396362894E+08, -1.969563374689636E+08, 1.053396264376094E+08,
2460658.500000000, A.D. 2024-Dec-14 00:00:00.0000, -4.005233175712583E+08, -2.043753834641577E+08, 1.011175945753295E+08,
2460665.500000000, A.D. 2024-Dec-21 00:00:00.0000, -3.945283078327773E+08, -2.116931338521567E+08, 9.684542517652118E+07,
2460672.500000000, A.D. 2024-Dec-28 00:00:00.0000, -3.883340796644958E+08, -2.189040274525626E+08, 9.252435309560603E+07,
2460679.500000000, A.D. 2025-Jan-04 00:00:00.0000, -3.819401119287036E+08, -2.260023664835071E+08, 8.815569182341896E+07,
2460686.500000000, A.D. 2025-Jan-11 00:00:00.0000, -3.753460009825447E+08, -2.329823156140885E+08, 8.374083702727672E+07,
2460693.500000000, A.D. 2025-Jan-18 00:00:00.0000, -3.685514695590402E+08, -2.398379009735906E+08, 7.928127026696374E+07,
2460700.500000000, A.D. 2025-Jan-25 00:00:00.0000, -3.615563764212481E+08, -2.465630096380031E+08, 7.477856281839643E+07,
2460707.500000000, A.D. 2025-Feb-01 00:00:00.0000, -3.543607266109500E+08, -2.531513896740435E+08, 7.023437957667270E+07,
2460714.500000000, A.D. 2025-Feb-08 00:00:00.0000, -3.469646822424738E+08, -2.595966507745649E+08, 6.565048302446296E+07,
2460721.500000000, A.D. 2025-Feb-15 00:00:00.0000, -3.393685738189096E+08, -2.658922655625167E+08, 6.102873724888216E+07,
$$EOE